[{"OBJECT_NAME":"PUJIANG 2 (PJ-2)","OBJECT_ID":"2022-031B","EPOCH":"2026-03-09T23:59:30.994656","MEAN_MOTION":14.94193409,"ECCENTRICITY":0.00120718,"INCLINATION":97.86,"RA_OF_ASC_NODE":254.4415,"ARG_OF_PERICENTER":164.7982,"MEAN_ANOMALY":195.3603,"EPHEMERIS_TYPE":0,"CLASSIFICATION_TYPE":"U","NORAD_CAT_ID":52151,"ELEMENT_SET_NO":999,"REV_AT_EPOCH":21498,"BSTAR":0.00020001428,"MEAN_MOTION_DOT":2.087e-5,"MEAN_MOTION_DDOT":0},{"OBJECT_NAME":"TIROS 6","OBJECT_ID":"1962-047A","EPOCH":"2026-03-09T22:32:46.825440","MEAN_MOTION":14.95739722,"ECCENTRICITY":0.00128175,"INCLINATION":58.3026,"RA_OF_ASC_NODE":287.9356,"ARG_OF_PERICENTER":61.4296,"MEAN_ANOMALY":298.8041,"EPHEMERIS_TYPE":0,"CLASSIFICATION_TYPE":"U","NORAD_CAT_ID":397,"ELEMENT_SET_NO":999,"REV_AT_EPOCH":39747,"BSTAR":0.00017529326,"MEAN_MOTION_DOT":1.739e-5,"MEAN_MOTION_DDOT":0}]
